GLOBALSTAR M063 [+]     
1 26081U 00008A   24030.34132608 -.00000088  00000+0 -85097-4 0  9991
2 26081  51.9985 358.4977 0004853  67.5105  80.1067 11.86150167 97782
GLOBALSTAR M062 [-]     
1 26082U 00008B   24030.61189109 -.00000006  00000+0  65955-3 0  9999
2 26082  51.9844 136.5963 0008080 117.7287 346.1599 12.43427387433977
GLOBALSTAR M060 [-]     
1 26083U 00008C   24030.21337913  .00000072  00000+0  16201-2 0  9995
2 26083  52.0040  26.4788 0003295 178.9391 263.2185 12.17625412 90977
GLOBALSTAR M064 [-]     
1 26084U 00008D   24030.46739150 -.00000034  00000+0  69812-3 0  9998
2 26084  52.0030 102.9334 0002141 159.3178 200.7742 11.88515508107200
GLOBALSTAR M065 [+]     
1 31571U 07020A   24030.28777019 -.00000104  00000+0 -17501-5 0  9991
2 31571  51.9919 319.9143 0009626 272.5910 256.2840 12.61961853769788
GLOBALSTAR M069 [+]     
1 31573U 07020C   24030.15614782 -.00000059  00000+0  25165-3 0  9997
2 31573  51.9950 276.3221 0001563  61.1207 104.3834 12.62265492770898
GLOBALSTAR M072 [+]     
1 31574U 07020D   24030.38922212 -.00000075  00000+0  15974-3 0  9998
2 31574  52.0120  11.4195 0000640 347.4125 176.8405 12.62281228769196
GLOBALSTAR M071 [P]     
1 31576U 07020F   24030.62323237 -.00000046  00000+0  32016-3 0  9993
2 31576  52.0068 279.9574 0001878  69.1828 299.4055 12.62266658432148
