<?xml version="1.0" encoding="UTF-8"?>
<ndm xmlns:xsi="http://www.w3.org/2001/XMLSchema-instance" xsi:noNamespaceSchemaLocation="https://sanaregistry.org/r/ndmxml_unqualified/ndmxml-2.0.0-master-2.0.xsd">
<omm id="CCSDS_OMM_VERS" version="2.0">
<header><CREATION_DATE/><ORIGINATOR/></header><body><segment><metadata><OBJECT_NAME>GLOBALSTAR M063 [+]</OBJECT_NAME><OBJECT_ID>2000-008A</OBJECT_ID><CENTER_NAME>EARTH</CENTER_NAME><REF_FRAME>TEME</REF_FRAME><TIME_SYSTEM>UTC</TIME_SYSTEM><MEAN_ELEMENT_THEORY>SGP4</MEAN_ELEMENT_THEORY></metadata><data><meanElements><EPOCH>2024-01-30T08:11:30.573312</EPOCH><MEAN_MOTION>11.86150167</MEAN_MOTION><ECCENTRICITY>.0004853</ECCENTRICITY><INCLINATION>51.9985</INCLINATION><RA_OF_ASC_NODE>358.4977</RA_OF_ASC_NODE><ARG_OF_PERICENTER>67.5105</ARG_OF_PERICENTER><MEAN_ANOMALY>80.1067</MEAN_ANOMALY></meanElements><tleParameters><EPHEMERIS_TYPE>0</EPHEMERIS_TYPE><CLASSIFICATION_TYPE>U</CLASSIFICATION_TYPE><NORAD_CAT_ID>26081</NORAD_CAT_ID><ELEMENT_SET_NO>999</ELEMENT_SET_NO><REV_AT_EPOCH>9778</REV_AT_EPOCH><BSTAR>-.85097E-4</BSTAR><MEAN_MOTION_DOT>-.88E-6</MEAN_MOTION_DOT><MEAN_MOTION_DDOT>0</MEAN_MOTION_DDOT></tleParameters></data></segment></body></omm>
<omm id="CCSDS_OMM_VERS" version="2.0">
<header><CREATION_DATE/><ORIGINATOR/></header><body><segment><metadata><OBJECT_NAME>GLOBALSTAR M062 [-]</OBJECT_NAME><OBJECT_ID>2000-008B</OBJECT_ID><CENTER_NAME>EARTH</CENTER_NAME><REF_FRAME>TEME</REF_FRAME><TIME_SYSTEM>UTC</TIME_SYSTEM><MEAN_ELEMENT_THEORY>SGP4</MEAN_ELEMENT_THEORY></metadata><data><meanElements><EPOCH>2024-01-30T14:41:07.390176</EPOCH><MEAN_MOTION>12.43427387</MEAN_MOTION><ECCENTRICITY>.000808</ECCENTRICITY><INCLINATION>51.9844</INCLINATION><RA_OF_ASC_NODE>136.5963</RA_OF_ASC_NODE><ARG_OF_PERICENTER>117.7287</ARG_OF_PERICENTER><MEAN_ANOMALY>346.1599</MEAN_ANOMALY></meanElements><tleParameters><EPHEMERIS_TYPE>0</EPHEMERIS_TYPE><CLASSIFICATION_TYPE>U</CLASSIFICATION_TYPE><NORAD_CAT_ID>26082</NORAD_CAT_ID><ELEMENT_SET_NO>999</ELEMENT_SET_NO><REV_AT_EPOCH>43397</REV_AT_EPOCH><BSTAR>.65955E-3</BSTAR><MEAN_MOTION_DOT>-.6E-7</MEAN_MOTION_DOT><MEAN_MOTION_DDOT>0</MEAN_MOTION_DDOT></tleParameters></data></segment></body></omm>
<omm id="CCSDS_OMM_VERS" version="2.0">
<header><CREATION_DATE/><ORIGINATOR/></header><body><segment><metadata><OBJECT_NAME>GLOBALSTAR M060 [-]</OBJECT_NAME><OBJECT_ID>2000-008C</OBJECT_ID><CENTER_NAME>EARTH</CENTER_NAME><REF_FRAME>TEME</REF_FRAME><TIME_SYSTEM>UTC</TIME_SYSTEM><MEAN_ELEMENT_THEORY>SGP4</MEAN_ELEMENT_THEORY></metadata><data><meanElements><EPOCH>2024-01-30T05:07:15.956832</EPOCH><MEAN_MOTION>12.17625412</MEAN_MOTION><ECCENTRICITY>.0003295</ECCENTRICITY><INCLINATION>52.0040</INCLINATION><RA_OF_ASC_NODE>26.4788</RA_OF_ASC_NODE><ARG_OF_PERICENTER>178.9391</ARG_OF_PERICENTER><MEAN_ANOMALY>263.2185</MEAN_ANOMALY></meanElements><tleParameters><EPHEMERIS_TYPE>0</EPHEMERIS_TYPE><CLASSIFICATION_TYPE>U</CLASSIFICATION_TYPE><NORAD_CAT_ID>26083</NORAD_CAT_ID><ELEMENT_SET_NO>999</ELEMENT_SET_NO><REV_AT_EPOCH>9097</REV_AT_EPOCH><BSTAR>.16201E-2</BSTAR><MEAN_MOTION_DOT>.72E-6</MEAN_MOTION_DOT><MEAN_MOTION_DDOT>0</MEAN_MOTION_DDOT></tleParameters></data></segment></body></omm>
<omm id="CCSDS_OMM_VERS" version="2.0">
<header><CREATION_DATE/><ORIGINATOR/></header><body><segment><metadata><OBJECT_NAME>GLOBALSTAR M064 [-]</OBJECT_NAME><OBJECT_ID>2000-008D</OBJECT_ID><CENTER_NAME>EARTH</CENTER_NAME><REF_FRAME>TEME</REF_FRAME><TIME_SYSTEM>UTC</TIME_SYSTEM><MEAN_ELEMENT_THEORY>SGP4</MEAN_ELEMENT_THEORY></metadata><data><meanElements><EPOCH>2024-01-30T11:13:02.625600</EPOCH><MEAN_MOTION>11.88515508</MEAN_MOTION><ECCENTRICITY>.0002141</ECCENTRICITY><INCLINATION>52.0030</INCLINATION><RA_OF_ASC_NODE>102.9334</RA_OF_ASC_NODE><ARG_OF_PERICENTER>159.3178</ARG_OF_PERICENTER><MEAN_ANOMALY>200.7742</MEAN_ANOMALY></meanElements><tleParameters><EPHEMERIS_TYPE>0</EPHEMERIS_TYPE><CLASSIFICATION_TYPE>U</CLASSIFICATION_TYPE><NORAD_CAT_ID>26084</NORAD_CAT_ID><ELEMENT_SET_NO>999</ELEMENT_SET_NO><REV_AT_EPOCH>10720</REV_AT_EPOCH><BSTAR>.69812E-3</BSTAR><MEAN_MOTION_DOT>-.34E-6</MEAN_MOTION_DOT><MEAN_MOTION_DDOT>0</MEAN_MOTION_DDOT></tleParameters></data></segment></body></omm>
<omm id="CCSDS_OMM_VERS" version="2.0">
<header><CREATION_DATE/><ORIGINATOR/></header><body><segment><metadata><OBJECT_NAME>GLOBALSTAR M065 [+]</OBJECT_NAME><OBJECT_ID>2007-020A</OBJECT_ID><CENTER_NAME>EARTH</CENTER_NAME><REF_FRAME>TEME</REF_FRAME><TIME_SYSTEM>UTC</TIME_SYSTEM><MEAN_ELEMENT_THEORY>SGP4</MEAN_ELEMENT_THEORY></metadata><data><meanElements><EPOCH>2024-01-30T06:54:23.344416</EPOCH><MEAN_MOTION>12.61961853</MEAN_MOTION><ECCENTRICITY>.0009626</ECCENTRICITY><INCLINATION>51.9919</INCLINATION><RA_OF_ASC_NODE>319.9143</RA_OF_ASC_NODE><ARG_OF_PERICENTER>272.5910</ARG_OF_PERICENTER><MEAN_ANOMALY>256.2840</MEAN_ANOMALY></meanElements><tleParameters><EPHEMERIS_TYPE>0</EPHEMERIS_TYPE><CLASSIFICATION_TYPE>U</CLASSIFICATION_TYPE><NORAD_CAT_ID>31571</NORAD_CAT_ID><ELEMENT_SET_NO>999</ELEMENT_SET_NO><REV_AT_EPOCH>76978</REV_AT_EPOCH><BSTAR>-.17501E-5</BSTAR><MEAN_MOTION_DOT>-.104E-5</MEAN_MOTION_DOT><MEAN_MOTION_DDOT>0</MEAN_MOTION_DDOT></tleParameters></data></segment></body></omm>
<omm id="CCSDS_OMM_VERS" version="2.0">
<header><CREATION_DATE/><ORIGINATOR/></header><body><segment><metadata><OBJECT_NAME>GLOBALSTAR M069 [+]</OBJECT_NAME><OBJECT_ID>2007-020C</OBJECT_ID><CENTER_NAME>EARTH</CENTER_NAME><REF_FRAME>TEME</REF_FRAME><TIME_SYSTEM>UTC</TIME_SYSTEM><MEAN_ELEMENT_THEORY>SGP4</MEAN_ELEMENT_THEORY></metadata><data><meanElements><EPOCH>2024-01-30T03:44:51.171648</EPOCH><MEAN_MOTION>12.62265492</MEAN_MOTION><ECCENTRICITY>.0001563</ECCENTRICITY><INCLINATION>51.9950</INCLINATION><RA_OF_ASC_NODE>276.3221</RA_OF_ASC_NODE><ARG_OF_PERICENTER>61.1207</ARG_OF_PERICENTER><MEAN_ANOMALY>104.3834</MEAN_ANOMALY></meanElements><tleParameters><EPHEMERIS_TYPE>0</EPHEMERIS_TYPE><CLASSIFICATION_TYPE>U</CLASSIFICATION_TYPE><NORAD_CAT_ID>31573</NORAD_CAT_ID><ELEMENT_SET_NO>999</ELEMENT_SET_NO><REV_AT_EPOCH>77089</REV_AT_EPOCH><BSTAR>.25165E-3</BSTAR><MEAN_MOTION_DOT>-.59E-6</MEAN_MOTION_DOT><MEAN_MOTION_DDOT>0</MEAN_MOTION_DDOT></tleParameters></data></segment></body></omm>
<omm id="CCSDS_OMM_VERS" version="2.0">
<header><CREATION_DATE/><ORIGINATOR/></header><body><segment><metadata><OBJECT_NAME>GLOBALSTAR M072 [+]</OBJECT_NAME><OBJECT_ID>2007-020D</OBJECT_ID><CENTER_NAME>EARTH</CENTER_NAME><REF_FRAME>TEME</REF_FRAME><TIME_SYSTEM>UTC</TIME_SYSTEM><MEAN_ELEMENT_THEORY>SGP4</MEAN_ELEMENT_THEORY></metadata><data><meanElements><EPOCH>2024-01-30T09:20:28.791168</EPOCH><MEAN_MOTION>12.62281228</MEAN_MOTION><ECCENTRICITY>.000064</ECCENTRICITY><INCLINATION>52.0120</INCLINATION><RA_OF_ASC_NODE>11.4195</RA_OF_ASC_NODE><ARG_OF_PERICENTER>347.4125</ARG_OF_PERICENTER><MEAN_ANOMALY>176.8405</MEAN_ANOMALY></meanElements><tleParameters><EPHEMERIS_TYPE>0</EPHEMERIS_TYPE><CLASSIFICATION_TYPE>U</CLASSIFICATION_TYPE><NORAD_CAT_ID>31574</NORAD_CAT_ID><ELEMENT_SET_NO>999</ELEMENT_SET_NO><REV_AT_EPOCH>76919</REV_AT_EPOCH><BSTAR>.15974E-3</BSTAR><MEAN_MOTION_DOT>-.75E-6</MEAN_MOTION_DOT><MEAN_MOTION_DDOT>0</MEAN_MOTION_DDOT></tleParameters></data></segment></body></omm>
<omm id="CCSDS_OMM_VERS" version="2.0">
<header><CREATION_DATE/><ORIGINATOR/></header><body><segment><metadata><OBJECT_NAME>GLOBALSTAR M071 [P]</OBJECT_NAME><OBJECT_ID>2007-020F</OBJECT_ID><CENTER_NAME>EARTH</CENTER_NAME><REF_FRAME>TEME</REF_FRAME><TIME_SYSTEM>UTC</TIME_SYSTEM><MEAN_ELEMENT_THEORY>SGP4</MEAN_ELEMENT_THEORY></metadata><data><meanElements><EPOCH>2024-01-30T14:57:27.276768</EPOCH><MEAN_MOTION>12.62266658</MEAN_MOTION><ECCENTRICITY>.0001878</ECCENTRICITY><INCLINATION>52.0068</INCLINATION><RA_OF_ASC_NODE>279.9574</RA_OF_ASC_NODE><ARG_OF_PERICENTER>69.1828</ARG_OF_PERICENTER><MEAN_ANOMALY>299.4055</MEAN_ANOMALY></meanElements><tleParameters><EPHEMERIS_TYPE>0</EPHEMERIS_TYPE><CLASSIFICATION_TYPE>U</CLASSIFICATION_TYPE><NORAD_CAT_ID>31576</NORAD_CAT_ID><ELEMENT_SET_NO>999</ELEMENT_SET_NO><REV_AT_EPOCH>43214</REV_AT_EPOCH><BSTAR>.32016E-3</BSTAR><MEAN_MOTION_DOT>-.46E-6</MEAN_MOTION_DOT><MEAN_MOTION_DDOT>0</MEAN_MOTION_DDOT></tleParameters></data></segment></body></omm>

</ndm>
